NORAD_CAT_ID,OBJECT_NAME,OBJECT_TYPE,EPOCH,MEAN_MOTION,ECCENTRICITY,INCLINATION,RA_OF_ASC_NODE,ARG_OF_PERICENTER,MEAN_ANOMALY,BSTAR,MEAN_MOTION_DOT,MEAN_MOTION_DDOT,TLE_LINE0,TLE_LINE1,TLE_LINE2,SEMIMAJOR_AXIS,PERIOD,APOGEE,PERIGEE,DECAYED
55936.0,STARLINK-5882,PAYLOAD,2023-10-20 04:14:49,14.98324329,0.0002917,69.9984,301.6585,270.5007,89.5818,-2.9275e-06,-1.28e-06,0.0,0 STARLINK-5882,1 55936U 23037Y   23293.17696085 -.00000128  00000-0 -29275-5 0  9997,2 55936  69.9984 301.6585 0002917 270.5007  89.5818 14.98324329 34273,6950.21,96.107,574.103,570.048,0.0
55936.0,STARLINK-5882,PAYLOAD,2023-10-20 10:39:21,14.98332599,0.0002607,69.9987,300.9848,267.1886,92.8975,-6.1008e-05,-8.21e-06,0.0,0 STARLINK-5882,1 55936U 23037Y   23293.44399745 -.00000821  00000-0 -61008-4 0  9999,2 55936  69.9987 300.9848 0002607 267.1886  92.8975 14.98332599 33978,6950.185,96.107,573.862,570.238,0.0
55936.0,STARLINK-5882,PAYLOAD,2023-10-21 10:41:22,14.98330799,0.0002661,69.9985,298.4595,265.8492,94.2363,-2.6081e-05,-4.04e-06,0.0,0 STARLINK-5882,1 55936U 23037Y   23294.44539826 -.00000404  00000-0 -26081-4 0  9995,2 55936  69.9985 298.4595 0002661 265.8492  94.2363 14.98330799 34466,6950.19,96.107,573.905,570.206,0.0
55936.0,STARLINK-5882,PAYLOAD,2023-10-21 17:05:54,14.98332744,0.0002715,69.9987,297.7862,270.5297,89.555,-2.2124e-05,-3.57e-06,0.0,0 STARLINK-5882,1 55936U 23037Y   23294.71243669 -.00000357  00000-0 -22124-4 0  9993,2 55936  69.9987 297.7862 0002715 270.5297  89.5550 14.98332744 34167,6950.184,96.107,573.936,570.162,0.0
55936.0,STARLINK-5882,PAYLOAD,2023-10-22 10:43:20,14.98405403,0.0002235,69.999,295.934,249.9493,110.1426,-0.00082227,-9.909e-05,0.0,0 STARLINK-5882,1 55936U 23037Y   23295.44676650 -.00009909  00000-0 -82227-3 0  9995,2 55936  69.9990 295.9340 0002235 249.9493 110.1426 14.98405403 34613,6949.96,96.102,573.378,570.271,0.0
55936.0,STARLINK-5882,PAYLOAD,2023-10-22 17:07:55,14.98332837,0.0001903,69.9987,295.2605,284.1105,75.9843,3.1809e-05,2.87e-06,0.0,0 STARLINK-5882,1 55936U 23037Y   23295.71383582  .00000287  00000-0  31809-4 0  9993,2 55936  69.9987 295.2605 0001903 284.1105  75.9843 14.98332837 34653,6950.184,96.107,573.372,570.726,0.0
55936.0,STARLINK-5882,PAYLOAD,2023-10-23 04:20:52,14.98321225,0.0002634,69.9982,294.0817,266.2969,93.7889,-7.8819e-05,-1.033e-05,0.0,0 STARLINK-5882,1 55936U 23037Y   23296.18116257 -.00001033  00000-0 -78819-4 0  9992,2 55936  69.9982 294.0817 0002634 266.2969  93.7889 14.98321225 34726,6950.22,96.108,573.916,570.254,0.0
55936.0,STARLINK-5882,PAYLOAD,2023-10-23 17:09:56,14.98347544,0.0002945,69.9984,292.7345,279.1933,80.8893,-0.0004088,-4.97e-05,0.0,0 STARLINK-5882,1 55936U 23037Y   23296.71523470 -.00004970  00000-0 -40880-3 0  9999,2 55936  69.9984 292.7345 0002945 279.1933  80.8893 14.98347544 34801,6950.139,96.106,574.05,569.957,0.0
55936.0,STARLINK-5882,PAYLOAD,2023-10-24 04:22:52,14.98331096,0.0002882,69.9982,291.557,274.729,85.354,-3.1146e-05,-4.65e-06,0.0,0 STARLINK-5882,1 55936U 23037Y   23297.18255682 -.00000465  00000-0 -31146-4 0  9999,2 55936  69.9982 291.5570 0002882 274.7290  85.3540 14.98331096 34874,6950.19,96.107,574.058,570.051,0.0
55936.0,STARLINK-5882,PAYLOAD,2023-10-24 09:11:17,14.98331467,0.0002515,69.9987,291.0517,266.7373,93.3498,-1.6426e-05,-2.89e-06,0.0,0 STARLINK-5882,1 55936U 23037Y   23297.38283582 -.00000289  00000-0 -16426-4 0  9999,2 55936  69.9987 291.0517 0002515 266.7373  93.3498 14.98331467 34560,6950.188,96.107,573.801,570.305,0.0
55936.0,STARLINK-5882,PAYLOAD,2023-10-25 09:13:17,14.98322586,0.0002829,69.9987,288.5267,271.532,88.5515,0.00016588,1.886e-05,0.0,0 STARLINK-5882,1 55936U 23037Y   23298.38423561  .00001886  00000-0  16588-3 0  9993,2 55936  69.9987 288.5267 0002829 271.5320  88.5515 14.98322586 35050,6950.216,96.107,574.047,570.115,0.0
55936.0,STARLINK-5882,PAYLOAD,2023-10-26 09:15:18,14.9833066,0.000269,69.9991,286.002,268.1357,91.9494,6.2636e-05,6.54e-06,0.0,0 STARLINK-5882,1 55936U 23037Y   23299.38563344  .00000654  00000-0  62636-4 0  9996,2 55936  69.9991 286.0020 0002690 268.1357  91.9494 14.98330660 35206,6950.191,96.107,573.925,570.186,0.0
55936.0,STARLINK-5882,PAYLOAD,2023-10-27 09:17:19,14.98340054,0.0002587,69.9995,283.4768,271.1618,88.9244,9.0519e-06,1.5e-07,0.0,0 STARLINK-5882,1 55936U 23037Y   23300.38702601  .00000015  00000-0  90519-5 0  9993,2 55936  69.9995 283.4768 0002587 271.1618  88.9244 14.98340054 35352,6950.162,96.106,573.825,570.229,0.0
55936.0,STARLINK-5882,PAYLOAD,2023-10-27 15:41:51,14.98328628,0.0002793,69.9992,282.8044,274.3985,85.6854,-2.2227e-05,-3.58e-06,0.0,0 STARLINK-5882,1 55936U 23037Y   23300.65407371 -.00000358  00000-0 -22227-4 0  9991,2 55936  69.9992 282.8044 0002793 274.3985  85.6854 14.98328628 35398,6950.197,96.107,574.003,570.121,0.0
55936.0,STARLINK-5882,PAYLOAD,2023-10-27 22:06:24,14.98330001,0.0002553,70.0003,282.1309,275.6567,84.43,-8.0701e-05,-1.056e-05,0.0,0 STARLINK-5882,1 55936U 23037Y   23300.92111556 -.00001056  00000-0 -80701-4 0  9995,2 55936  70.0003 282.1309 0002553 275.6567  84.4300 14.98330001 35093,6950.193,96.107,573.832,570.284,0.0
55936.0,STARLINK-5882,PAYLOAD,2023-10-28 07:43:12,14.98333331,0.0002127,70.0003,281.1212,258.8792,101.2128,-0.00025765,-3.166e-05,0.0,0 STARLINK-5882,1 55936U 23037Y   23301.32167810 -.00003166  00000-0 -25765-3 0  9996,2 55936  70.0003 281.1212 0002127 258.8792 101.2128 14.98333331 35157,6950.183,96.107,573.526,570.569,0.0
55936.0,STARLINK-5882,PAYLOAD,2023-10-28 15:43:53,14.9833103,0.0002759,69.9999,280.2795,271.4633,88.621,-9.4519e-05,-1.221e-05,0.0,0 STARLINK-5882,1 55936U 23037Y   23301.65547550 -.00001221  00000-0 -94519-4 0  9999,2 55936  69.9999 280.2795 0002759 271.4633  88.6210 14.98331030 35547,6950.19,96.107,573.972,570.137,0.0
55936.0,STARLINK-5882,PAYLOAD,2023-10-28 22:08:25,14.98331207,0.0003029,69.9991,279.606,269.3725,90.7087,-6.5317e-05,-8.72e-06,0.0,0 STARLINK-5882,1 55936U 23037Y   23301.92251407 -.00000872  00000-0 -65317-4 0  9997,2 55936  69.9991 279.6060 0003029 269.3725  90.7087 14.98331207 35244,6950.189,96.107,574.159,569.949,0.0
55936.0,STARLINK-5882,PAYLOAD,2023-10-29 04:32:51,14.98402086,0.000263,70.0008,278.9317,265.2112,94.8747,0.00077043,9.129e-05,0.0,0 STARLINK-5882,1 55936U 23037Y   23302.18949024  .00009129  00000-0  77043-3 0  9995,2 55936  70.0008 278.9317 0002630 265.2112  94.8747 14.98402086 35629,6949.97,96.102,573.663,570.007,0.0
55936.0,STARLINK-5882,PAYLOAD,2023-10-29 12:33:37,14.98326054,0.0003003,70.0007,278.0902,264.0776,96.0041,2.9735e-05,2.62e-06,0.0,0 STARLINK-5882,1 55936U 23037Y   23302.52335152  .00000262  00000-0  29735-4 0  9999,2 55936  70.0007 278.0902 0003003 264.0776  96.0041 14.98326054 35673,6950.205,96.107,574.157,569.983,0.0
55936.0,STARLINK-5882,PAYLOAD,2023-10-29 15:45:53,14.9834954,0.0002969,70.0009,277.7534,275.3477,84.7344,-0.00060595,-7.319e-05,0.0,0 STARLINK-5882,1 55936U 23037Y   23302.65687173 -.00007319  00000-0 -60595-3 0  9996,2 55936  70.0009 277.7534 0002969 275.3477  84.7344 14.98349540 35355,6950.132,96.106,574.061,569.934,0.0
55936.0,STARLINK-5882,PAYLOAD,2023-10-30 04:34:59,14.98317334,0.0002398,70.0007,276.4084,256.3246,103.7646,-1.3314e-05,-2.52e-06,0.0,0 STARLINK-5882,1 55936U 23037Y   23303.19096118 -.00000252  00000-0 -13314-4 0  9996,2 55936  70.0007 276.4084 0002398 256.3246 103.7646 14.98317334 35777,6950.232,96.108,573.764,570.43,0.0
55936.0,STARLINK-5882,PAYLOAD,2023-10-30 15:47:55,14.98315509,0.0002586,70.0007,275.2286,262.8439,97.2426,9.9923e-05,1.099e-05,0.0,0 STARLINK-5882,1 55936U 23037Y   23303.65828165  .00001099  00000-0  99923-4 0  9990,2 55936  70.0007 275.2286 0002586 262.8439  97.2426 14.98315509 35509,6950.238,96.108,573.9,570.305,0.0
55936.0,STARLINK-5882,PAYLOAD,2023-10-31 04:36:59,14.9833585,0.0002623,70.0002,273.882,264.4724,95.6136,4.6041e-05,4.57e-06,0.0,0 STARLINK-5882,1 55936U 23037Y   23304.19234998  .00000457  00000-0  46041-4 0  9995,2 55936  70.0002 273.8820 0002623 264.4724  95.6136 14.98335850 35926,6950.175,96.107,573.863,570.217,0.0
55936.0,STARLINK-5882,PAYLOAD,2023-10-31 07:49:15,14.98332459,0.0002836,69.9997,273.5454,267.8045,92.279,2.7965e-06,-6e-07,0.0,0 STARLINK-5882,1 55936U 23037Y   23304.32587288 -.00000060  00000-0  27965-5 0  9999,2 55936  69.9997 273.5454 0002836 267.8045  92.2790 14.98332459 35601,6950.185,96.107,574.021,570.079,0.0
55936.0,STARLINK-5882,PAYLOAD,2023-10-31 15:49:55,14.98332157,0.0002836,70.0002,272.7033,270.4051,89.6783,-5.1984e-05,-7.13e-06,0.0,0 STARLINK-5882,1 55936U 23037Y   23304.65967423 -.00000713  00000-0 -51984-4 0  9991,2 55936  70.0002 272.7033 0002836 270.4051  89.6783 14.98332157 35991,6950.186,96.107,574.022,570.08,0.0
55936.0,STARLINK-5882,PAYLOAD,2023-10-31 22:14:28,14.98324908,0.0003046,70.0007,272.0299,267.9121,92.1689,8.2594e-05,8.93e-06,0.0,0 STARLINK-5882,1 55936U 23037Y   23304.92671485  .00000893  00000-0  82594-4 0  9999,2 55936  70.0007 272.0299 0003046 267.9121  92.1689 14.98324908 35692,6950.209,96.107,574.191,569.957,0.0
55936.0,STARLINK-5882,PAYLOAD,2023-11-01 04:38:51,14.98435652,0.0003245,70.0012,271.3569,262.8143,97.2648,0.0014572,0.00017385,0.0,0 STARLINK-5882,1 55936U 23037Y   23305.19365471  .00017385  00000-0  14572-2 0  9997,2 55936  70.0012 271.3569 0003245 262.8143  97.2648 14.98435652 36072,6949.866,96.1,573.986,569.476,0.0
55936.0,STARLINK-5882,PAYLOAD,2023-11-01 07:51:11,14.98388088,0.0003072,70.0004,271.0204,272.382,87.6988,0.0010366,0.00012316,0.0,0 STARLINK-5882,1 55936U 23037Y   23305.32721499  .00012316  00000-0  10366-2 0  9994,2 55936  70.0004 271.0204 0003072 272.3820  87.6988 14.98388088 36094,6950.013,96.103,574.013,569.743,0.0
55936.0,STARLINK-5882,PAYLOAD,2023-11-01 20:40:21,14.98327992,0.0003108,70.0001,269.6741,268.594,91.4863,8.0978e-07,-8.3e-07,0.0,0 STARLINK-5882,1 55936U 23037Y   23305.86135613 -.00000083  00000-0  80978-6 0  9999,2 55936  70.0001 269.6741 0003108 268.5940  91.4863 14.98327992 36171,6950.199,96.107,574.224,569.904,0.0
